KUIPER-00613            
1 69293U 26118AC  26156.08337963 -.00001178  00000+0 -22368-4 0  9999
2 69293  51.8618 111.8568 0010611 143.0174  78.8153 15.35636526  1307
KUIPER-00618            
1 69294U 26118AD  26156.08337963  .00005090  00000+0  14233-3 0  9996
2 69294  51.8710 111.7360 0002232  58.8306 216.2172 15.38440106  1309
KUIPER-00620            
1 69295U 26118AE  26156.08337963  .00005610  00000+0  15740-3 0  9999
2 69295  51.8705 111.7526 0003054  82.5034 185.7684 15.38118663  2065
STARLINK-37501          
1 69296U 26119A   26156.08337963 -.02480327  16148-2 -83134-2 0  9991
2 69296  97.2838 181.2099 0001643  75.1486  52.0420 15.90299766  1947
STARLINK-37496          
1 69297U 26119B   26156.08337963 -.02434722  15616-2 -80648-2 0  9996
2 69297  97.2836 181.2108 0001634  71.2184  58.0686 15.90530697  1940
STARLINK-37519          
1 69298U 26119C   26156.08337963 -.02436135  15703-2 -79040-2 0  9998
2 69298  97.2836 181.2130 0001603  78.6314  56.0962 15.90940065  1947
STARLINK-37455          
1 69299U 26119D   26156.08337963 -.02412653  15381-2 -79010-2 0  9997
2 69299  97.2835 181.2116 0001547  71.8682  59.7507 15.90755129  1941
STARLINK-37456          
1 69300U 26119E   26156.08337963 -.02394881  15229-2 -76817-2 0  9995
2 69300  97.2835 181.2138 0001606  78.3627  58.3266 15.91162733  1946
STARLINK-37630          
1 69301U 26119F   26156.08337963 -.02378342  15062-2 -75441-2 0  9997
2 69301  97.2837 181.2148 0001625  80.4686  58.4708 15.91380087  2105
STARLINK-37804          
1 69302U 26119G   26156.08337963 -.02365530  14940-2 -74227-2 0  9998
2 69302  97.2835 181.2155 0001607  79.2454  62.0185 15.91591332  2108
STARLINK-37730          
1 69303U 26119H   26156.08337963 -.02342758  14697-2 -72743-2 0  9996
2 69303  97.2836 181.2166 0001527  72.0901  71.4367 15.91795593  2102
STARLINK-37731          
1 69304U 26119J   26156.08337963 -.02319805  14454-2 -71254-2 0  9991
2 69304  97.2835 181.2172 0001588  78.1768  67.3727 15.92004731  2106
STARLINK-37734          
1 69305U 26119K   26156.08337963 -.02311072  14381-2 -70246-2 0  9999
2 69305  97.2838 181.2182 0001493  78.4722  69.3769 15.92208262  2102
STARLINK-37701          
1 69306U 26119L   26156.08337963 -.02281601  14062-2 -68621-2 0  9994
2 69306  97.2835 181.2188 0001529  76.2903  73.3385 15.92410966  2108
STARLINK-37732          
1 69307U 26119M   26156.08337963 -.02277705  14047-2 -67786-2 0  9999
2 69307  97.2835 181.2200 0001601  78.7127  73.0240 15.92614320  2107
STARLINK-37689          
1 69308U 26119N   26156.08337963 -.02245086  13692-2 -66157-2 0  9993
2 69308  97.2832 181.2205 0001537  72.8570  80.7310 15.92803012  2106
STARLINK-37619          
1 69309U 26119P   26156.08337963 -.02227455  13515-2 -64979-2 0  9998
2 69309  97.2832 181.2213 0001515  78.2867  77.2767 15.92996145  2108
STARLINK-37794          
1 69310U 26119Q   26156.08337963 -.02203280  13262-2 -63658-2 0  9992
2 69310  97.2834 181.2222 0001435  74.5637  82.8315 15.93179435  2104
STARLINK-37795          
1 69311U 26119R   26156.08337963 -.02165458  12855-2 -61993-2 0  9994
2 69311  97.2832 181.2229 0001501  74.5166  84.8855 15.93351997  2107
STARLINK-37790          
1 69312U 26119S   26156.08337963 -.02177503  13020-2 -61705-2 0  9995
2 69312  97.2831 181.2237 0001499  73.6648  87.6136 15.93548579  2104
STARLINK-37676          
1 69313U 26119T   26156.08337963 -.02158170  12825-2 -60584-2 0  9991
2 69313  97.2832 181.2246 0001466  79.8616  83.3929 15.93726897  2107
STARLINK-37617          
1 69314U 26119U   26156.08337963 -.02161574  12890-2 -60091-2 0  9999
2 69314  97.2830 181.2250 0001564  77.8254  87.5710 15.93912972  2101
STARLINK-37627          
1 69315U 26119V   26156.08337963 -.02148242  12763-2 -59170-2 0  9992
2 69315  97.2831 181.2261 0001393  78.1349  89.0514 15.94088616  2103
STARLINK-37738          
1 69316U 26119W   26156.08337963 -.02097067  12211-2 -57282-2 0  9991
2 69316  97.2830 181.2270 0001384  77.9454  91.1452 15.94241729  2108
STARLINK-37799          
1 69317U 26119X   26156.08337963 -.02097536  12240-2 -56758-2 0  9992
2 69317  97.2830 181.2279 0001436  72.6976  98.3965 15.94420227  2051
STARLINK-37802          
1 69318U 26119Y   26156.08337963 -.02103360  12328-2 -56387-2 0  9991
2 69318  97.2831 181.2288 0001423  81.0190  91.9442 15.94597163  2100
STARLINK-37803          
1 69319U 26119Z   26156.08337963 -.02060118  11871-2 -54777-2 0  9998
2 69319  97.2832 181.2295 0001393  76.3966  98.0849 15.94747889  2059
GUOWANG TEST OBJECT A   
1 69320U 26120A   26156.05923277  .00011639  00000+0  30899-3 0  9997
2 69320  54.9979  82.3518 0009275 287.9643  72.0373 15.38754372   821
GUOWANG TEST OBJECT B   
1 69321U 26120B   26155.27875762  .00027005  00000+0  69390-3 0  9998
2 69321  55.0006  85.8667 0009100 296.4175  63.5919 15.39121370   705
