OBJECT_NAME,OBJECT_ID,EPOCH,MEAN_MOTION,ECCENTRICITY,INCLINATION,RA_OF_ASC_NODE,ARG_OF_PERICENTER,MEAN_ANOMALY,EPHEMERIS_TYPE,CLASSIFICATION_TYPE,NORAD_CAT_ID,ELEMENT_SET_NO,REV_AT_EPOCH,BSTAR,MEAN_MOTION_DOT,MEAN_MOTION_DDOT
KUIPER-00613,2026-118AC,2026-06-05T02:00:04.000032,15.35636526,.0010611,51.8618,111.8568,143.0174,78.8153,0,U,69293,999,130,-.22368E-4,-.1178E-4,0
KUIPER-00618,2026-118AD,2026-06-05T02:00:04.000032,15.38440106,.0002232,51.8710,111.7360,58.8306,216.2172,0,U,69294,999,130,.14233E-3,.509E-4,0
KUIPER-00620,2026-118AE,2026-06-05T02:00:04.000032,15.38118663,.0003054,51.8705,111.7526,82.5034,185.7684,0,U,69295,999,206,.1574E-3,.561E-4,0
STARLINK-37501,2026-119A,2026-06-05T02:00:04.000032,15.90299766,.0001643,97.2838,181.2099,75.1486,52.0420,0,U,69296,999,194,-.83134E-2,-.2480327E-1,.16148E-2
STARLINK-37496,2026-119B,2026-06-05T02:00:04.000032,15.90530697,.0001634,97.2836,181.2108,71.2184,58.0686,0,U,69297,999,194,-.80648E-2,-.2434722E-1,.15616E-2
STARLINK-37519,2026-119C,2026-06-05T02:00:04.000032,15.90940065,.0001603,97.2836,181.2130,78.6314,56.0962,0,U,69298,999,194,-.7904E-2,-.2436135E-1,.15703E-2
STARLINK-37455,2026-119D,2026-06-05T02:00:04.000032,15.90755129,.0001547,97.2835,181.2116,71.8682,59.7507,0,U,69299,999,194,-.7901E-2,-.2412653E-1,.15381E-2
STARLINK-37456,2026-119E,2026-06-05T02:00:04.000032,15.91162733,.0001606,97.2835,181.2138,78.3627,58.3266,0,U,69300,999,194,-.76817E-2,-.2394881E-1,.15229E-2
STARLINK-37630,2026-119F,2026-06-05T02:00:04.000032,15.91380087,.0001625,97.2837,181.2148,80.4686,58.4708,0,U,69301,999,210,-.75441E-2,-.2378342E-1,.15062E-2
STARLINK-37804,2026-119G,2026-06-05T02:00:04.000032,15.91591332,.0001607,97.2835,181.2155,79.2454,62.0185,0,U,69302,999,210,-.74227E-2,-.236553E-1,.1494E-2
STARLINK-37730,2026-119H,2026-06-05T02:00:04.000032,15.91795593,.0001527,97.2836,181.2166,72.0901,71.4367,0,U,69303,999,210,-.72743E-2,-.2342758E-1,.14697E-2
STARLINK-37731,2026-119J,2026-06-05T02:00:04.000032,15.92004731,.0001588,97.2835,181.2172,78.1768,67.3727,0,U,69304,999,210,-.71254E-2,-.2319805E-1,.14454E-2
STARLINK-37734,2026-119K,2026-06-05T02:00:04.000032,15.92208262,.0001493,97.2838,181.2182,78.4722,69.3769,0,U,69305,999,210,-.70246E-2,-.2311072E-1,.14381E-2
STARLINK-37701,2026-119L,2026-06-05T02:00:04.000032,15.92410966,.0001529,97.2835,181.2188,76.2903,73.3385,0,U,69306,999,210,-.68621E-2,-.2281601E-1,.14062E-2
STARLINK-37732,2026-119M,2026-06-05T02:00:04.000032,15.92614320,.0001601,97.2835,181.2200,78.7127,73.0240,0,U,69307,999,210,-.67786E-2,-.2277705E-1,.14047E-2
STARLINK-37689,2026-119N,2026-06-05T02:00:04.000032,15.92803012,.0001537,97.2832,181.2205,72.8570,80.7310,0,U,69308,999,210,-.66157E-2,-.2245086E-1,.13692E-2
STARLINK-37619,2026-119P,2026-06-05T02:00:04.000032,15.92996145,.0001515,97.2832,181.2213,78.2867,77.2767,0,U,69309,999,210,-.64979E-2,-.2227455E-1,.13515E-2
STARLINK-37794,2026-119Q,2026-06-05T02:00:04.000032,15.93179435,.0001435,97.2834,181.2222,74.5637,82.8315,0,U,69310,999,210,-.63658E-2,-.220328E-1,.13262E-2
STARLINK-37795,2026-119R,2026-06-05T02:00:04.000032,15.93351997,.0001501,97.2832,181.2229,74.5166,84.8855,0,U,69311,999,210,-.61993E-2,-.2165458E-1,.12855E-2
STARLINK-37790,2026-119S,2026-06-05T02:00:04.000032,15.93548579,.0001499,97.2831,181.2237,73.6648,87.6136,0,U,69312,999,210,-.61705E-2,-.2177503E-1,.1302E-2
STARLINK-37676,2026-119T,2026-06-05T02:00:04.000032,15.93726897,.0001466,97.2832,181.2246,79.8616,83.3929,0,U,69313,999,210,-.60584E-2,-.215817E-1,.12825E-2
STARLINK-37617,2026-119U,2026-06-05T02:00:04.000032,15.93912972,.0001564,97.2830,181.2250,77.8254,87.5710,0,U,69314,999,210,-.60091E-2,-.2161574E-1,.1289E-2
STARLINK-37627,2026-119V,2026-06-05T02:00:04.000032,15.94088616,.0001393,97.2831,181.2261,78.1349,89.0514,0,U,69315,999,210,-.5917E-2,-.2148242E-1,.12763E-2
STARLINK-37738,2026-119W,2026-06-05T02:00:04.000032,15.94241729,.0001384,97.2830,181.2270,77.9454,91.1452,0,U,69316,999,210,-.57282E-2,-.2097067E-1,.12211E-2
STARLINK-37799,2026-119X,2026-06-05T02:00:04.000032,15.94420227,.0001436,97.2830,181.2279,72.6976,98.3965,0,U,69317,999,205,-.56758E-2,-.2097536E-1,.1224E-2
STARLINK-37802,2026-119Y,2026-06-05T02:00:04.000032,15.94597163,.0001423,97.2831,181.2288,81.0190,91.9442,0,U,69318,999,210,-.56387E-2,-.210336E-1,.12328E-2
STARLINK-37803,2026-119Z,2026-06-05T02:00:04.000032,15.94747889,.0001393,97.2832,181.2295,76.3966,98.0849,0,U,69319,999,205,-.54777E-2,-.2060118E-1,.11871E-2
GUOWANG TEST OBJECT A,2026-120A,2026-06-05T01:25:17.711328,15.38754372,.0009275,54.9979,82.3518,287.9643,72.0373,0,U,69320,999,82,.30899E-3,.11639E-3,0
GUOWANG TEST OBJECT B,2026-120B,2026-06-04T06:41:24.658368,15.39121370,.00091004,55.0006,85.8667,296.4175,63.5919,0,U,69321,999,70,.6938966E-3,.27005E-3,0
